ONEWEB-0208             
1 48243U 21031AK  26022.31827530 -.00000023  00000+0 -97011-4 0  9997
2 48243  87.9030 318.7770 0001515  85.2462 274.8841 13.14505257229147
ONEWEB-0200             
1 48244U 21031AL  26022.28179951  .00000250  00000+0  63981-3 0  9999
2 48244  87.9030 318.7737 0001682  81.3215 278.8105 13.14504864229060
ONEWEB-0217             
1 48245U 21031AM  26022.29765427 -.00000041  00000+0 -14510-3 0  9994
2 48245  87.9038 318.7681 0001496  86.7374 273.3927 13.14501256229014
ONEWEB-0211             
1 48767U 21045A   26022.45835058 -.00000052  00000+0 -17074-3 0  9994
2 48767  87.9009 288.2019 0001143  81.3193 278.8067 13.16139663225276
ONEWEB-0223             
1 48768U 21045B   26022.46742932 -.00000002  00000+0 -38355-4 0  9995
2 48768  87.9009 288.2719 0001174  69.7048 290.4209 13.15548756225248
ONEWEB-0230             
1 48769U 21045C   26022.43889825  .00000005  00000+0 -20067-4 0  9999
2 48769  87.9001 288.3045 0001730  72.8817 287.2502 13.15550149225509
ONEWEB-0237             
1 48770U 21045D   26022.27569103  .00000090  00000+0  20605-3 0  9997
2 48770  87.9004 288.3382 0001399  66.5648 293.5630 13.15550413225204
ONEWEB-0235             
1 48771U 21045E   26022.47851501  .00000092  00000+0  20970-3 0  9993
2 48771  87.9007 288.2705 0001211  65.6023 294.5234 13.15549661225222
ONEWEB-0242             
1 48772U 21045F   26022.24400513  .00000135  00000+0  32367-3 0  9993
2 48772  87.9011 288.3121 0001559  68.5679 291.5618 13.15549755225233
ONEWEB-0241             
1 48773U 21045G   26022.45949740 -.00000078  00000+0 -24200-3 0  9992
2 48773  87.9000 288.3027 0001200  80.0620 280.0645 13.15550478225175
ONEWEB-0243             
1 48774U 21045H   26022.49118532  .00000080  00000+0  17843-3 0  9990
2 48774  87.9004 288.3071 0001433  60.9702 299.1572 13.15546755225202
ONEWEB-0222             
1 48775U 21045J   26022.47454695  .00000046  00000+0  89245-4 0  9990
2 48775  87.9007 288.2668 0001433  73.3872 286.7416 13.15547496225249
ONEWEB-0244             
1 48776U 21045K   26022.42463969  .00000118  00000+0  27812-3 0  9991
2 48776  87.9013 288.2658 0001482  70.5948 289.5342 13.15549977225800
ONEWEB-0247             
1 48777U 21045L   26022.49752534  .00000158  00000+0  38508-3 0  9996
2 48777  87.8999 288.3012 0001248  41.7604 318.3621 13.15548318225255
ONEWEB-0245             
1 48778U 21045M   26022.49277753  .00000236  00000+0  59151-3 0  9996
2 48778  87.9008 288.2690 0001393  80.3551 279.7737 13.15550875225226
ONEWEB-0229             
1 48779U 21045N   26022.48802004  .00000097  00000+0  22438-3 0  9992
2 48779  87.9005 288.2675 0001567  69.5593 290.5705 13.15550186225259
ONEWEB-0228             
1 48780U 21045P   26022.29324935 -.00000044  00000+0 -15132-3 0  9992
2 48780  87.9014 288.2929 0001497  73.0432 287.0862 13.15546947225140
ONEWEB-0232             
1 48781U 21045Q   26022.26776813  .00000188  00000+0  46448-3 0  9997
2 48781  87.9019 288.2938 0001575  73.6697 286.4606 13.15547339225462
ONEWEB-0231             
1 48782U 21045R   26022.24558255  .00000092  00000+0  21101-3 0  9997
2 48782  87.8998 288.3334 0001446  68.5805 291.5479 13.15549452225159
ONEWEB-0234             
1 48783U 21045S   26022.43558519  .00000055  00000+0  11120-3 0  9991
2 48783  87.9006 288.2716 0001815 102.9626 257.1707 13.15547137225316
ONEWEB-0238             
1 48784U 21045T   26022.43585948 -.00000003  00000+0 -42650-4 0  9996
2 48784  87.9007 288.2647 0001664  91.0605 269.0715 13.15551189225210
ONEWEB-0240             
1 48785U 21045U   26022.45712464 -.00000055  00000+0 -18077-3 0  9996
2 48785  87.9013 288.2591 0001246  78.8951 281.2320 13.15549464225243
ONEWEB-0246             
1 48786U 21045V   26022.45157624 -.00000091  00000+0 -27653-3 0  9998
2 48786  87.9014 288.2698 0001613  70.5049 289.6256 13.15549701225118
ONEWEB-0210             
1 48787U 21045W   26022.27410876  .00003225  00000+0  85299-2 0  9999
2 48787  87.8991 288.3029 0001382  44.5594 315.5647 13.15550166225132
ONEWEB-0214             
1 48788U 21045X   26022.43492913  .00000069  00000+0  15018-3 0  9996
2 48788  87.9017 288.2643 0001722  57.5442 302.5855 13.15548046225128
ONEWEB-0221             
1 48789U 21045Y   26022.44206534  .00000035  00000+0  57981-4 0  9999
2 48789  87.9010 288.2752 0001384  72.2666 287.8615 13.15550979225216
ONEWEB-0213             
1 48790U 21045Z   26022.43097450  .00000127  00000+0  30283-3 0  9992
2 48790  87.9005 288.2820 0001381  63.6373 296.4899 13.15547921225273
ONEWEB-0212             
1 48791U 21045AA  26022.48405078  .00000162  00000+0  39576-3 0  9990
2 48791  87.9008 288.2653 0001572  77.4029 282.7277 13.15551349225271
ONEWEB-0227             
1 48792U 21045AB  26022.48326847  .00000175  00000+0  43118-3 0  9998
2 48792  87.8997 288.2714 0001455  76.4742 283.6550 13.15549955225226
ONEWEB-0226             
1 48793U 21045AC  26022.47692487  .00000052  00000+0  10495-3 0  9990
2 48793  87.8999 288.2827 0001490  64.0873 296.0411 13.15547155225191
ONEWEB-0224             
1 48794U 21045AD  26022.44047222  .00000049  00000+0  96297-4 0  9990
2 48794  87.9001 288.3252 0001079 108.2352 251.8896 13.15547324225112
ONEWEB-0233             
1 48795U 21045AE  26022.29298385 -.00000069  00000+0 -21857-3 0  9995
2 48795  87.9001 288.3646 0001287  73.4005 286.7267 13.15549946225110
ONEWEB-0190             
1 48796U 21045AF  26022.43256917 -.00000086  00000+0 -26300-3 0  9994
2 48796  87.8995 288.2983 0001053  50.3233 309.7990 13.15548797225205
ONEWEB-0236             
1 48797U 21045AG  26022.44998964 -.00000109  00000+0 -32323-3 0  9999
2 48797  87.8999 288.3061 0001669  79.5588 280.5730 13.15549696225091
ONEWEB-0248             
1 48798U 21045AH  26022.46266671  .00000001  00000+0 -30952-4 0  9992
2 48798  87.9011 288.2716 0001023  80.8121 279.3125 13.15550636225254
ONEWEB-0225             
1 48799U 21045AJ  26022.48485953  .00000096  00000+0  22075-3 0  9990
2 48799  87.8998 288.2876 0001140  58.5634 301.5607 13.15549463225266
ONEWEB-0215             
1 48800U 21045AK  26022.45474707 -.00000113  00000+0 -33385-3 0  9993
2 48800  87.9015 288.2604 0000945  61.6346 298.4879 13.15549002225136
ONEWEB-0216             
1 48801U 21045AL  26022.46425049 -.00000007  00000+0 -52890-4 0  9995
2 48801  87.9004 288.2837 0001671  69.6497 290.4812 13.15550017225143
ONEWEB-0239             
1 48802U 21045AM  26022.46900561  .00000018  00000+0  14929-4 0  9994
2 48802  87.9001 288.2970 0000753  70.7107 289.4105 13.15547832225188
ONEWEB-0249             
1 48967U 21060A   26022.13793292  .00000041  00000+0  73311-4 0  9994
2 48967  87.9021 257.8551 0001358  80.1746 279.9538 13.16596093220391
ONEWEB-0250             
1 48968U 21060B   26022.35238235  .00000018  00000+0  10277-4 0  9996
2 48968  87.9018 256.0456 0001546 120.9319 239.1969 13.25824134220892
ONEWEB-0252             
1 48970U 21060D   26022.39759074  .00000054  00000+0  10862-3 0  9991
2 48970  87.9016 257.7977 0001552  71.7790 288.3510 13.16594090220479
ONEWEB-0253             
1 48971U 21060E   26022.38650844  .00000000  00000+0 -32971-4 0  9994
2 48971  87.9019 257.8048 0001360  77.5513 282.5770 13.16595683220403
ONEWEB-0254             
1 48972U 21060F   26022.39599696  .00000056  00000+0  11321-3 0  9998
2 48972  87.9021 257.7963 0001137  83.1863 276.9397 13.16592669220408
ONEWEB-0255             
1 48973U 21060G   26022.35800976 -.00000040  00000+0 -13749-3 0  9992
2 48973  87.9015 257.8162 0001270  80.9552 279.1723 13.16596079220476
ONEWEB-0256             
1 48974U 21060H   26022.38413401  .00000002  00000+0 -27856-4 0  9991
2 48974  87.9009 257.8172 0001612  78.6544 281.4768 13.16593802220449
ONEWEB-0257             
1 48975U 21060J   26022.34058814  .00000114  00000+0  26475-3 0  9999
2 48975  87.9021 257.8084 0001372  74.2244 285.9038 13.16596028220394
ONEWEB-0258             
1 48976U 21060K   26022.34217308  .00000106  00000+0  24423-3 0  9997
2 48976  87.9016 257.8209 0001489  83.1239 277.0061 13.16596525220402
ONEWEB-0259             
1 48977U 21060L   26022.41183728  .00000058  00000+0  11759-3 0  9998
2 48977  87.9022 257.8043 0001328  81.6410 278.4871 13.16595560220448
ONEWEB-0260             
1 48978U 21060M   26022.40313302  .00000057  00000+0  11626-3 0  9993
2 48978  87.9008 257.8151 0001756  69.5054 290.6265 13.16594206220424
ONEWEB-0261             
1 48979U 21060N   26022.37304707 -.00000040  00000+0 -13901-3 0  9991
2 48979  87.9012 257.8229 0001204  69.6333 290.4927 13.16592913220476
ONEWEB-0262             
1 48980U 21060P   26022.35325688  .00000032  00000+0  49919-4 0  9990
2 48980  87.9022 257.8043 0001266  88.9530 271.1746 13.16596070220433
ONEWEB-0263             
1 48981U 21060Q   26022.38491574  .00000000  00000+0 -33678-4 0  9993
2 48981  87.9013 257.8102 0001141  73.6917 286.4340 13.16595885220401
ONEWEB-0264             
1 48982U 21060R   26022.19413294  .00000038  00000+0  66227-4 0  9992
2 48982  87.9019 257.8517 0001474  70.8800 289.2490 13.16593230220383
ONEWEB-0266             
1 48984U 21060T   26022.36750546 -.00000020  00000+0 -85700-4 0  9997
2 48984  87.9023 257.8056 0001480  87.7697 272.3603 13.16595815220397
ONEWEB-0267             
1 48985U 21060U   26022.37858444 -.00000016  00000+0 -74527-4 0  9995
2 48985  87.9017 257.8010 0001395  74.4636 285.6648 13.16595884220406
ONEWEB-0268             
1 48986U 21060V   26022.34691765  .00000073  00000+0  15698-3 0  9998
2 48986  87.9023 257.8166 0001508  76.7687 283.3612 13.16596502220665
ONEWEB-0269             
1 48987U 21060W   26022.40391302  .00000042  00000+0  75980-4 0  9997
2 48987  87.9007 257.8238 0001702  78.9203 281.2120 13.16596528220447
ONEWEB-0270             
1 48988U 21060X   26022.19334993 -.00000115  00000+0 -33562-3 0  9999
2 48988  87.9017 257.8511 0001135  84.8339 275.2921 13.16596574220453
